start=new Date('2022-05-14T00:00:00.000Z').valueOf();
sats=[{"BSTAR":"0.00008319200000","ECCENTRICITY":"0.00016310","NORAD_CAT_ID":"47780","PERIAPSIS":"546.089","MEAN_MOTION":"15.06398536","OBJECT_NAME":"STARLINK-2213","OBJECT_ID":"2021-017BL","COUNTRY_CODE":"US","MEAN_MOTION_DDOT":"0.0000000000000","GP_ID":"203477274","PERIOD":"95.592","SITE":"AFETR","DECAY_DATE":null,"CLASSIFICATION_TYPE":"U","ELEMENT_SET_NO":"999","OBJECT_TYPE":"PAYLOAD","REV_AT_EPOCH":"6740","RCS_SIZE":"LARGE","MEAN_ANOMALY":"304.3418","EPOCH":"2022-05-13T21:49:23.680704","INCLINATION":"53.0489","SEMIMAJOR_AXIS":"6925.353","MEAN_MOTION_DOT":"0.00000958","CENTER_NAME":"EARTH","TLE_LINE2":"2 47780  53.0489 357.5249 0001631  55.7726 304.3418 15.06398536 67401","MEAN_ELEMENT_THEORY":"SGP4","RA_OF_ASC_NODE":"357.5249","LAUNCH_DATE":"2021-03-04","TIME_SYSTEM":"UTC","REF_FRAME":"TEME","TLE_LINE1":"1 47780U 21017BL  22133.90930186  .00000958  00000-0  83192-4 0  9993","ARG_OF_PERICENTER":"55.7726","EPHEMERIS_TYPE":"0","FILE":"3444395","APOAPSIS":"548.348"},{"SITE":"AFETR","GP_ID":"203449923","PERIOD":"95.592","MEAN_MOTION_DDOT":"0.0000000000000","COUNTRY_CODE":"US","ELEMENT_SET_NO":"999","OBJECT_TYPE":"PAYLOAD","REV_AT_EPOCH":"6671","CLASSIFICATION_TYPE":"U","DECAY_DATE":null,"RCS_SIZE":"LARGE","SEMIMAJOR_AXIS":"6925.343","INCLINATION":"53.0550","EPOCH":"2022-05-13T21:01:37.756416","MEAN_ANOMALY":"286.4011","BSTAR":"-0.00003778300000","NORAD_CAT_ID":"47781","ECCENTRICITY":"0.00014970","PERIAPSIS":"546.172","OBJECT_ID":"2021-017BM","OBJECT_NAME":"STARLINK-2223","MEAN_MOTION":"15.06401736","RA_OF_ASC_NODE":"357.6691","REF_FRAME":"TEME","TIME_SYSTEM":"UTC","LAUNCH_DATE":"2021-03-04","FILE":"3444117","TLE_LINE1":"1 47781U 21017BM  22133.87613144 -.00000844  00000-0 -37783-4 0  9993","ARG_OF_PERICENTER":"73.7143","EPHEMERIS_TYPE":"0","APOAPSIS":"548.245","MEAN_MOTION_DOT":"-0.00000844","CENTER_NAME":"EARTH","TLE_LINE2":"2 47781  53.0550 357.6691 0001497  73.7143 286.4011 15.06401736 66715","MEAN_ELEMENT_THEORY":"SGP4"},{"FILE":"3444395","TLE_LINE1":"1 47787U 21018A   22133.89456337 -.00000048  00000-0  15651-4 0  9996","EPHEMERIS_TYPE":"0","ARG_OF_PERICENTER":"56.9053","APOAPSIS":"548.440","RA_OF_ASC_NODE":"37.5858","TIME_SYSTEM":"UTC","LAUNCH_DATE":"2021-03-11","REF_FRAME":"TEME","MEAN_ELEMENT_THEORY":"SGP4","MEAN_MOTION_DOT":"-0.00000048","CENTER_NAME":"EARTH","TLE_LINE2":"2 47787  53.0554  37.5858 0001751  56.9053 303.2104 15.06395490 66215","RCS_SIZE":"LARGE","INCLINATION":"53.0554","SEMIMAJOR_AXIS":"6925.362","MEAN_ANOMALY":"303.2104","EPOCH":"2022-05-13T21:28:10.275168","PERIOD":"95.592","GP_ID":"203477776","SITE":"AFETR","COUNTRY_CODE":"US","MEAN_MOTION_DDOT":"0.0000000000000","REV_AT_EPOCH":"6621","OBJECT_TYPE":"PAYLOAD","ELEMENT_SET_NO":"999","DECAY_DATE":null,"CLASSIFICATION_TYPE":"U","PERIAPSIS":"546.015","OBJECT_ID":"2021-018A","OBJECT_NAME":"STARLINK-2257","MEAN_MOTION":"15.06395490","BSTAR":"0.00001565100000","NORAD_CAT_ID":"47787","ECCENTRICITY":"0.00017510"},{"APOAPSIS":"548.493","FILE":"3444395","ARG_OF_PERICENTER":"58.7015","TLE_LINE1":"1 47788U 21018B   22133.90607821  .00000867  00000-0  77126-4 0  9998","EPHEMERIS_TYPE":"0","REF_FRAME":"TEME","LAUNCH_DATE":"2021-03-11","TIME_SYSTEM":"UTC","RA_OF_ASC_NODE":"12.5445","MEAN_ELEMENT_THEORY":"SGP4","TLE_LINE2":"2 47788  53.0554  12.5445 0001847  58.7015 301.4154 15.06399911 66582","MEAN_MOTION_DOT":"0.00000867","CENTER_NAME":"EARTH","SEMIMAJOR_AXIS":"6925.349","INCLINATION":"53.0554","EPOCH":"2022-05-13T21:44:45.157344","MEAN_ANOMALY":"301.4154","RCS_SIZE":"LARGE","OBJECT_TYPE":"PAYLOAD","ELEMENT_SET_NO":"999","REV_AT_EPOCH":"6658","CLASSIFICATION_TYPE":"U","DECAY_DATE":null,"SITE":"AFETR","PERIOD":"95.592","GP_ID":"203478026","COUNTRY_CODE":"US","MEAN_MOTION_DDOT":"0.0000000000000","OBJECT_NAME":"STARLINK-2314","OBJECT_ID":"2021-018B","MEAN_MOTION":"15.06399911","PERIAPSIS":"545.935","ECCENTRICITY":"0.00018470","NORAD_CAT_ID":"47788","BSTAR":"0.00007712600000"},{"NORAD_CAT_ID":"47789","ECCENTRICITY":"0.00016040","BSTAR":"-0.00005197200000","OBJECT_ID":"2021-018C","OBJECT_NAME":"STARLINK-2315","MEAN_MOTION":"15.06398755","PERIAPSIS":"546.107","OBJECT_TYPE":"PAYLOAD","ELEMENT_SET_NO":"999","REV_AT_EPOCH":"6650","CLASSIFICATION_TYPE":"U","DECAY_DATE":null,"SITE":"AFETR","GP_ID":"203476775","PERIOD":"95.592","COUNTRY_CODE":"US","MEAN_MOTION_DDOT":"0.0000000000000","SEMIMAJOR_AXIS":"6925.352","INCLINATION":"53.0555","EPOCH":"2022-05-13T21:20:12.084864","MEAN_ANOMALY":"297.1488","RCS_SIZE":"LARGE","TLE_LINE2":"2 47789  53.0555  17.6265 0001604  62.9665 297.1488 15.06398755 66507","CENTER_NAME":"EARTH","MEAN_MOTION_DOT":"-0.00001056","MEAN_ELEMENT_THEORY":"SGP4","REF_FRAME":"TEME","LAUNCH_DATE":"2021-03-11","TIME_SYSTEM":"UTC","RA_OF_ASC_NODE":"17.6265","APOAPSIS":"548.328","FILE":"3444395","TLE_LINE1":"1 47789U 21018C   22133.88902876 -.00001056  00000-0 -51972-4 0  9998","ARG_OF_PERICENTER":"62.9665","EPHEMERIS_TYPE":"0"},{"NORAD_CAT_ID":"47790","ECCENTRICITY":"0.00016340","BSTAR":"-0.00000707530000","OBJECT_NAME":"STARLINK-2319","OBJECT_ID":"2021-018D","MEAN_MOTION":"15.06390937","PERIAPSIS":"546.110","OBJECT_TYPE":"PAYLOAD","ELEMENT_SET_NO":"999","REV_AT_EPOCH":"6665","DECAY_DATE":null,"CLASSIFICATION_TYPE":"U","GP_ID":"203477025","PERIOD":"95.593","SITE":"AFETR","MEAN_MOTION_DDOT":"0.0000000000000","COUNTRY_CODE":"US","INCLINATION":"53.0561","SEMIMAJOR_AXIS":"6925.376","MEAN_ANOMALY":"283.2203","EPOCH":"2022-05-13T22:19:55.447104","RCS_SIZE":"LARGE","TLE_LINE2":"2 47790  53.0561   7.4375 0001634  76.8969 283.2203 15.06390937 66650","CENTER_NAME":"EARTH","MEAN_MOTION_DOT":"-0.00000387","MEAN_ELEMENT_THEORY":"SGP4","TIME_SYSTEM":"UTC","LAUNCH_DATE":"2021-03-11","REF_FRAME":"TEME","RA_OF_ASC_NODE":"7.4375","APOAPSIS":"548.373","FILE":"3444395","ARG_OF_PERICENTER":"76.8969","TLE_LINE1":"1 47790U 21018D   22133.93050286 -.00000387  00000-0 -70753-5 0  9990","EPHEMERIS_TYPE":"0"},{"TLE_LINE2":"2 47791  53.0546  37.6362 0001535  51.2094 308.9032 15.06400569 66222","CENTER_NAME":"EARTH","MEAN_MOTION_DOT":"0.00000423","MEAN_ELEMENT_THEORY":"SGP4","TIME_SYSTEM":"UTC","LAUNCH_DATE":"2021-03-11","REF_FRAME":"TEME","RA_OF_ASC_NODE":"37.6362","APOAPSIS":"548.275","FILE":"3444395","EPHEMERIS_TYPE":"0","TLE_LINE1":"1 47791U 21018E   22133.88349777  .00000423  00000-0  47317-4 0  9999","ARG_OF_PERICENTER":"51.2094","NORAD_CAT_ID":"47791","ECCENTRICITY":"0.00015350","BSTAR":"0.00004731700000","OBJECT_NAME":"STARLINK-2322","OBJECT_ID":"2021-018E","MEAN_MOTION":"15.06400569","PERIAPSIS":"546.149","REV_AT_EPOCH":"6622","OBJECT_TYPE":"PAYLOAD","ELEMENT_SET_NO":"999","DECAY_DATE":null,"CLASSIFICATION_TYPE":"U","PERIOD":"95.592","GP_ID":"203478275","SITE":"AFETR","MEAN_MOTION_DDOT":"0.0000000000000","COUNTRY_CODE":"US","INCLINATION":"53.0546","SEMIMAJOR_AXIS":"6925.347","MEAN_ANOMALY":"308.9032","EPOCH":"2022-05-13T21:12:14.207328","RCS_SIZE":"LARGE"},{"ELEMENT_SET_NO":"999","OBJECT_TYPE":"PAYLOAD","REV_AT_EPOCH":"6615","CLASSIFICATION_TYPE":"U","DECAY_DATE":null,"SITE":"AFETR","PERIOD":"95.592","GP_ID":"203448995","COUNTRY_CODE":"US","MEAN_MOTION_DDOT":"0.0000000000000","SEMIMAJOR_AXIS":"6925.359","INCLINATION":"53.0563","EPOCH":"2022-05-13T21:30:49.586400","MEAN_ANOMALY":"301.8860","RCS_SIZE":"LARGE","ECCENTRICITY":"0.00014250","NORAD_CAT_ID":"47792","BSTAR":"0.00020717000000","OBJECT_NAME":"STARLINK-2334","OBJECT_ID":"2021-018F","MEAN_MOTION":"15.06396637","PERIAPSIS":"546.237","REF_FRAME":"TEME","LAUNCH_DATE":"2021-03-11","TIME_SYSTEM":"UTC","RA_OF_ASC_NODE":"17.5815","APOAPSIS":"548.211","FILE":"3444072","TLE_LINE1":"1 47792U 21018F   22133.89640725  .00002805  00000-0  20717-3 0  9998","EPHEMERIS_TYPE":"0","ARG_OF_PERICENTER":"58.2267","TLE_LINE2":"2 47792  53.0563  17.5815 0001425  58.2267 301.8860 15.06396637 66152","CENTER_NAME":"EARTH","MEAN_MOTION_DOT":"0.00002805","MEAN_ELEMENT_THEORY":"SGP4"},{"OBJECT_NAME":"STARLINK-2338","OBJECT_ID":"2021-018G","MEAN_MOTION":"15.06398413","PERIAPSIS":"546.139","ECCENTRICITY":"0.00015580","NORAD_CAT_ID":"47793","BSTAR":"-0.00002240700000","SEMIMAJOR_AXIS":"6925.353","INCLINATION":"53.0550","EPOCH":"2022-05-13T21:52:02.960832","MEAN_ANOMALY":"316.6383","RCS_SIZE":"LARGE","ELEMENT_SET_NO":"999","OBJECT_TYPE":"PAYLOAD","REV_AT_EPOCH":"6649","CLASSIFICATION_TYPE":"U","DECAY_DATE":null,"SITE":"AFETR","GP_ID":"203477275","PERIOD":"95.592","COUNTRY_CODE":"US","MEAN_MOTION_DDOT":"0.0000000000000","MEAN_ELEMENT_THEORY":"SGP4","TLE_LINE2":"2 47793  53.0550  17.5242 0001558  43.4729 316.6383 15.06398413 66494","MEAN_MOTION_DOT":"-0.00000615","CENTER_NAME":"EARTH","APOAPSIS":"548.297","FILE":"3444395","TLE_LINE1":"1 47793U 21018G   22133.91114538 -.00000615  00000-0 -22407-4 0  9998","EPHEMERIS_TYPE":"0","ARG_OF_PERICENTER":"43.4729","REF_FRAME":"TEME","LAUNCH_DATE":"2021-03-11","TIME_SYSTEM":"UTC","RA_OF_ASC_NODE":"17.5242"},{"OBJECT_ID":"2021-018H","OBJECT_NAME":"STARLINK-2341","MEAN_MOTION":"15.06393806","PERIAPSIS":"546.047","NORAD_CAT_ID":"47794","ECCENTRICITY":"0.00017120","BSTAR":"0.00001149200000","INCLINATION":"53.0563","SEMIMAJOR_AXIS":"6925.368","MEAN_ANOMALY":"306.4139","EPOCH":"2022-05-13T21:57:21.642912","RCS_SIZE":"LARGE","REV_AT_EPOCH":"6650","OBJECT_TYPE":"PAYLOAD","ELEMENT_SET_NO":"999","DECAY_DATE":null,"CLASSIFICATION_TYPE":"U","PERIOD":"95.593","GP_ID":"203477525","SITE":"AFETR","COUNTRY_CODE":"US","MEAN_MOTION_DDOT":"0.0000000000000","MEAN_ELEMENT_THEORY":"SGP4","TLE_LINE2":"2 47794  53.0563  17.5049 0001712  53.7008 306.4139 15.06393806 66509","MEAN_MOTION_DOT":"-0.00000110","CENTER_NAME":"EARTH","APOAPSIS":"548.418","FILE":"3444395","TLE_LINE1":"1 47794U 21018H   22133.91483383 -.00000110  00000-0  11492-4 0  9997","EPHEMERIS_TYPE":"0","ARG_OF_PERICENTER":"53.7008","TIME_SYSTEM":"UTC","LAUNCH_DATE":"2021-03-11","REF_FRAME":"TEME","RA_OF_ASC_NODE":"17.5049"}];
